SL-14 R/B               
1 16792U 86046B   25351.22764974  .00000500  00000+0  54857-4 0  9993
2 16792  82.4812 158.0755 0024100 137.9169 222.3904 14.85489609114165
SL-14 R/B               
1 16882U 86055B   25351.10110475  .00000436  00000+0  47604-4 0  9991
2 16882  82.5200 204.2747 0017567 243.7390 231.4353 14.85535107107103
AJISAI (EGS)            
1 16908U 86061A   25351.31058562 -.00000092  00000+0  38045-4 0  9996
2 16908  50.0113 346.6621 0011310  77.3973 307.3060 12.44514342457742
COSMOS 1812             
1 17295U 87003A   25351.30209067  .00090256  00000+0  56688-3 0  9992
2 17295  82.4869 287.0739 0006976  80.3564 279.8489 15.76416155131376
SL-14 R/B               
1 17567U 87024B   25351.02161244  .00000486  00000+0  52600-4 0  9997
2 17567  82.5274 170.4319 0018451 170.0010 190.1578 14.86028254 75855
COSMOS 1833             
1 17589U 87027A   25351.17762206  .00000188  00000+0  12621-3 0  9992
2 17589  70.9142 139.4477 0022714 325.5382  34.4265 14.13023553998652
SL-16 R/B               
1 17590U 87027B   25351.31990706  .00000230  00000+0  13760-3 0  9991
2 17590  71.0034  90.0671 0007287 254.4684 105.5635 14.17153754  3678
SL-14 R/B               
1 17912U 87038B   25351.31093838  .00000395  00000+0  43033-4 0  9990
2 17912  82.5013  14.3952 0020864  78.1199 282.2355 14.85265362 67002
COSMOS 1844             
1 17973U 87041A   25351.29996482  .00000128  00000+0  91430-4 0  9993
2 17973  70.8964 207.9531 0029928 149.8768 210.4083 14.14526752991939
SL-14 R/B               
1 18153U 87055B   25351.30200532  .00000433  00000+0  47227-4 0  9999
2 18153  82.4999  66.6890 0019216 287.1905  72.7208 14.85525999 57709
COSMOS 1867             
1 18187U 87060A   25351.21378103 -.00000025  00000+0  28354-4 0  9990
2 18187  65.0086 177.6734 0013624 271.5824  88.3699 14.31486777  8135
SL-14 R/B               
1 18749U 88001B   25351.29191173  .00000421  00000+0  45893-4 0  9994
2 18749  82.5134 272.8658 0018861 146.5817 213.6594 14.85428771 29792
