CCSDS_OMM_VERS = 2.0
CREATION_DATE  = 
ORIGINATOR     = 

OBJECT_NAME    = SL-14 R/B
OBJECT_ID      = 1986-046B
CENTER_NAME    = EARTH
REF_FRAME      = TEME
TIME_SYSTEM    = UTC
MEAN_ELEMENT_THEORY = SGP/SGP4

EPOCH          = 2025-12-17T05:27:48.937536
MEAN_MOTION    = 14.85489609
ECCENTRICITY   = .00241006
INCLINATION    = 82.4812
RA_OF_ASC_NODE = 158.0755
ARG_OF_PERICENTER = 137.9169
MEAN_ANOMALY   = 222.3904

EPHEMERIS_TYPE = 0
CLASSIFICATION_TYPE = U
NORAD_CAT_ID   = 16792
ELEMENT_SET_NO = 999
REV_AT_EPOCH   = 11416
BSTAR          = .54856963E-4
MEAN_MOTION_DOT = .5E-5
MEAN_MOTION_DDOT = 0

CCSDS_OMM_VERS = 2.0
CREATION_DATE  = 
ORIGINATOR     = 

OBJECT_NAME    = SL-14 R/B
OBJECT_ID      = 1986-055B
CENTER_NAME    = EARTH
REF_FRAME      = TEME
TIME_SYSTEM    = UTC
MEAN_ELEMENT_THEORY = SGP/SGP4

EPOCH          = 2025-12-17T02:25:35.450400
MEAN_MOTION    = 14.85535107
ECCENTRICITY   = .00175674
INCLINATION    = 82.5200
RA_OF_ASC_NODE = 204.2747
ARG_OF_PERICENTER = 243.7390
MEAN_ANOMALY   = 231.4353

EPHEMERIS_TYPE = 0
CLASSIFICATION_TYPE = U
NORAD_CAT_ID   = 16882
ELEMENT_SET_NO = 999
REV_AT_EPOCH   = 10710
BSTAR          = .47604123E-4
MEAN_MOTION_DOT = .436E-5
MEAN_MOTION_DDOT = 0

CCSDS_OMM_VERS = 2.0
CREATION_DATE  = 
ORIGINATOR     = 

OBJECT_NAME    = AJISAI (EGS)
OBJECT_ID      = 1986-061A
CENTER_NAME    = EARTH
REF_FRAME      = TEME
TIME_SYSTEM    = UTC
MEAN_ELEMENT_THEORY = SGP/SGP4

EPOCH          = 2025-12-17T07:27:14.597568
MEAN_MOTION    = 12.44514342
ECCENTRICITY   = .00113104
INCLINATION    = 50.0113
RA_OF_ASC_NODE = 346.6621
ARG_OF_PERICENTER = 77.3973
MEAN_ANOMALY   = 307.3060

EPHEMERIS_TYPE = 0
CLASSIFICATION_TYPE = U
NORAD_CAT_ID   = 16908
ELEMENT_SET_NO = 999
REV_AT_EPOCH   = 45774
BSTAR          = .38044533E-4
MEAN_MOTION_DOT = -.92E-6
MEAN_MOTION_DDOT = 0

CCSDS_OMM_VERS = 2.0
CREATION_DATE  = 
ORIGINATOR     = 

OBJECT_NAME    = COSMOS 1812
OBJECT_ID      = 1987-003A
CENTER_NAME    = EARTH
REF_FRAME      = TEME
TIME_SYSTEM    = UTC
MEAN_ELEMENT_THEORY = SGP/SGP4

EPOCH          = 2025-12-17T07:15:00.633888
MEAN_MOTION    = 15.76416155
ECCENTRICITY   = .00069768
INCLINATION    = 82.4869
RA_OF_ASC_NODE = 287.0739
ARG_OF_PERICENTER = 80.3564
MEAN_ANOMALY   = 279.8489

EPHEMERIS_TYPE = 0
CLASSIFICATION_TYPE = U
NORAD_CAT_ID   = 17295
ELEMENT_SET_NO = 999
REV_AT_EPOCH   = 13137
BSTAR          = .56688498E-3
MEAN_MOTION_DOT = .90256E-3
MEAN_MOTION_DDOT = 0

CCSDS_OMM_VERS = 2.0
CREATION_DATE  = 
ORIGINATOR     = 

OBJECT_NAME    = SL-14 R/B
OBJECT_ID      = 1987-024B
CENTER_NAME    = EARTH
REF_FRAME      = TEME
TIME_SYSTEM    = UTC
MEAN_ELEMENT_THEORY = SGP/SGP4

EPOCH          = 2025-12-17T00:31:07.314816
MEAN_MOTION    = 14.86028254
ECCENTRICITY   = .00184515
INCLINATION    = 82.5274
RA_OF_ASC_NODE = 170.4319
ARG_OF_PERICENTER = 170.0010
MEAN_ANOMALY   = 190.1578

EPHEMERIS_TYPE = 0
CLASSIFICATION_TYPE = U
NORAD_CAT_ID   = 17567
ELEMENT_SET_NO = 999
REV_AT_EPOCH   = 7585
BSTAR          = .52599897E-4
MEAN_MOTION_DOT = .486E-5
MEAN_MOTION_DDOT = 0

CCSDS_OMM_VERS = 2.0
CREATION_DATE  = 
ORIGINATOR     = 

OBJECT_NAME    = COSMOS 1833
OBJECT_ID      = 1987-027A
CENTER_NAME    = EARTH
REF_FRAME      = TEME
TIME_SYSTEM    = UTC
MEAN_ELEMENT_THEORY = SGP/SGP4

EPOCH          = 2025-12-17T04:15:46.545984
MEAN_MOTION    = 14.13023553
ECCENTRICITY   = .00227148
INCLINATION    = 70.9142
RA_OF_ASC_NODE = 139.4477
ARG_OF_PERICENTER = 325.5382
MEAN_ANOMALY   = 34.4265

EPHEMERIS_TYPE = 0
CLASSIFICATION_TYPE = U
NORAD_CAT_ID   = 17589
ELEMENT_SET_NO = 999
REV_AT_EPOCH   = 99865
BSTAR          = .12621225E-3
MEAN_MOTION_DOT = .188E-5
MEAN_MOTION_DDOT = 0

CCSDS_OMM_VERS = 2.0
CREATION_DATE  = 
ORIGINATOR     = 

OBJECT_NAME    = SL-16 R/B
OBJECT_ID      = 1987-027B
CENTER_NAME    = EARTH
REF_FRAME      = TEME
TIME_SYSTEM    = UTC
MEAN_ELEMENT_THEORY = SGP/SGP4

EPOCH          = 2025-12-17T07:40:39.969984
MEAN_MOTION    = 14.17153754
ECCENTRICITY   = .00072875
INCLINATION    = 71.0034
RA_OF_ASC_NODE = 90.0671
ARG_OF_PERICENTER = 254.4684
MEAN_ANOMALY   = 105.5635

EPHEMERIS_TYPE = 0
CLASSIFICATION_TYPE = U
NORAD_CAT_ID   = 17590
ELEMENT_SET_NO = 999
REV_AT_EPOCH   = 367
BSTAR          = .13760072E-3
MEAN_MOTION_DOT = .23E-5
MEAN_MOTION_DDOT = 0

CCSDS_OMM_VERS = 2.0
CREATION_DATE  = 
ORIGINATOR     = 

OBJECT_NAME    = SL-14 R/B
OBJECT_ID      = 1987-038B
CENTER_NAME    = EARTH
REF_FRAME      = TEME
TIME_SYSTEM    = UTC
MEAN_ELEMENT_THEORY = SGP/SGP4

EPOCH          = 2025-12-17T07:27:45.076032
MEAN_MOTION    = 14.85265362
ECCENTRICITY   = .00208644
INCLINATION    = 82.5013
RA_OF_ASC_NODE = 14.3952
ARG_OF_PERICENTER = 78.1199
MEAN_ANOMALY   = 282.2355

EPHEMERIS_TYPE = 0
CLASSIFICATION_TYPE = U
NORAD_CAT_ID   = 17912
ELEMENT_SET_NO = 999
REV_AT_EPOCH   = 6700
BSTAR          = .43032526E-4
MEAN_MOTION_DOT = .395E-5
MEAN_MOTION_DDOT = 0

CCSDS_OMM_VERS = 2.0
CREATION_DATE  = 
ORIGINATOR     = 

OBJECT_NAME    = COSMOS 1844
OBJECT_ID      = 1987-041A
CENTER_NAME    = EARTH
REF_FRAME      = TEME
TIME_SYSTEM    = UTC
MEAN_ELEMENT_THEORY = SGP/SGP4

EPOCH          = 2025-12-17T07:11:56.960448
MEAN_MOTION    = 14.14526752
ECCENTRICITY   = .00299289
INCLINATION    = 70.8964
RA_OF_ASC_NODE = 207.9531
ARG_OF_PERICENTER = 149.8768
MEAN_ANOMALY   = 210.4083

EPHEMERIS_TYPE = 0
CLASSIFICATION_TYPE = U
NORAD_CAT_ID   = 17973
ELEMENT_SET_NO = 999
REV_AT_EPOCH   = 99193
BSTAR          = .91429972E-4
MEAN_MOTION_DOT = .128E-5
MEAN_MOTION_DDOT = 0

CCSDS_OMM_VERS = 2.0
CREATION_DATE  = 
ORIGINATOR     = 

OBJECT_NAME    = SL-14 R/B
OBJECT_ID      = 1987-055B
CENTER_NAME    = EARTH
REF_FRAME      = TEME
TIME_SYSTEM    = UTC
MEAN_ELEMENT_THEORY = SGP/SGP4

EPOCH          = 2025-12-17T07:14:53.259648
MEAN_MOTION    = 14.85525999
ECCENTRICITY   = .0019216
INCLINATION    = 82.4999
RA_OF_ASC_NODE = 66.6890
ARG_OF_PERICENTER = 287.1905
MEAN_ANOMALY   = 72.7208

EPHEMERIS_TYPE = 0
CLASSIFICATION_TYPE = U
NORAD_CAT_ID   = 18153
ELEMENT_SET_NO = 999
REV_AT_EPOCH   = 5770
BSTAR          = .47226692E-4
MEAN_MOTION_DOT = .433E-5
MEAN_MOTION_DDOT = 0

CCSDS_OMM_VERS = 2.0
CREATION_DATE  = 
ORIGINATOR     = 

OBJECT_NAME    = COSMOS 1867
OBJECT_ID      = 1987-060A
CENTER_NAME    = EARTH
REF_FRAME      = TEME
TIME_SYSTEM    = UTC
MEAN_ELEMENT_THEORY = SGP/SGP4

EPOCH          = 2025-12-17T05:07:50.680992
MEAN_MOTION    = 14.31486777
ECCENTRICITY   = .00136248
INCLINATION    = 65.0086
RA_OF_ASC_NODE = 177.6734
ARG_OF_PERICENTER = 271.5824
MEAN_ANOMALY   = 88.3699

EPHEMERIS_TYPE = 0
CLASSIFICATION_TYPE = U
NORAD_CAT_ID   = 18187
ELEMENT_SET_NO = 999
REV_AT_EPOCH   = 813
BSTAR          = .28353612E-4
MEAN_MOTION_DOT = -.25E-6
MEAN_MOTION_DDOT = 0

CCSDS_OMM_VERS = 2.0
CREATION_DATE  = 
ORIGINATOR     = 

OBJECT_NAME    = SL-14 R/B
OBJECT_ID      = 1988-001B
CENTER_NAME    = EARTH
REF_FRAME      = TEME
TIME_SYSTEM    = UTC
MEAN_ELEMENT_THEORY = SGP/SGP4

EPOCH          = 2025-12-17T07:00:21.173472
MEAN_MOTION    = 14.85428771
ECCENTRICITY   = .00188613
INCLINATION    = 82.5134
RA_OF_ASC_NODE = 272.8658
ARG_OF_PERICENTER = 146.5817
MEAN_ANOMALY   = 213.6594

EPHEMERIS_TYPE = 0
CLASSIFICATION_TYPE = U
NORAD_CAT_ID   = 18749
ELEMENT_SET_NO = 999
REV_AT_EPOCH   = 2979
BSTAR          = .45893111E-4
MEAN_MOTION_DOT = .421E-5
MEAN_MOTION_DDOT = 0

